YUZGU 12 (RS6S)         
1 53311U 98067TW  22251.81449911  .00045115  00000+0  69758-3 0  9995
2 53311  51.6397 281.6601 0000955 110.0719 250.0374 15.53622326  7708
TSIOLKOVSKY-RYAZAN 1 (*)
1 53312U 98067TX  22251.62310043  .00045245  00000+0  70251-3 0  9992
2 53312  51.6403 282.6329 0000870 233.9911 126.0999 15.53506131  7610
TSIOLKOVSKY-RYAZAN 2 (*)
1 53313U 98067TY  22251.81475372  .00045121  00000+0  69938-3 0  9994
2 53313  51.6402 281.6634 0000556 270.6129  89.4798 15.53554745  7699
YUZGU 10 (RS4S)         
1 53321U 98067TZ  22251.81981872  .00045310  00000+0  70636-3 0  9997
2 53321  51.6405 281.6993 0000404 163.5517 196.5486 15.53394121  7696
YUZGU UA                
1 53322U 98067UA  22251.81893546  .00045602  00000+0  70948-3 0  9998
2 53322  51.6402 281.6914 0000522 142.3927 217.7100 15.53447264  7649
HSU-SAT1                
1 53462U 98067UB  22251.58475651  .00032900  00000+0  53592-3 0  9993
2 53462  51.6396 283.1243 0005396 238.9492 121.0969 15.52313102  4235
FUTABA                  
1 53463U 98067UC  22251.38892419  .00035774  00000+0  57632-3 0  9998
2 53463  51.6394 284.0662 0005265 240.5124 119.5341 15.52580960  4206
TUMNANOSAT              
1 53464U 98067UD  22251.38621763  .00040803  00000+0  64947-3 0  9997
2 53464  51.6396 284.0483 0005173 242.1039 117.9427 15.52853285  4201
