[{
    "OBJECT_NAME": "YUZGU 12 (RS6S)",
    "OBJECT_ID": "1998-067TW",
    "EPOCH": "2022-09-08T19:32:52.723104",
    "MEAN_MOTION": 15.53622326,
    "ECCENTRICITY": 9.55e-5,
    "INCLINATION": 51.6397,
    "RA_OF_ASC_NODE": 281.6601,
    "ARG_OF_PERICENTER": 110.0719,
    "MEAN_ANOMALY": 250.0374,
    "EPHEMERIS_TYPE": 0,
    "CLASSIFICATION_TYPE": "U",
    "NORAD_CAT_ID": 53311,
    "ELEMENT_SET_NO": 999,
    "REV_AT_EPOCH": 770,
    "BSTAR": 0.00069758,
    "MEAN_MOTION_DOT": 0.00045115,
    "MEAN_MOTION_DDOT": 0
},{
    "OBJECT_NAME": "TSIOLKOVSKY-RYAZAN 1 (RS9S)",
    "OBJECT_ID": "1998-067TX",
    "EPOCH": "2022-09-08T14:57:15.877152",
    "MEAN_MOTION": 15.53506131,
    "ECCENTRICITY": 8.7e-5,
    "INCLINATION": 51.6403,
    "RA_OF_ASC_NODE": 282.6329,
    "ARG_OF_PERICENTER": 233.9911,
    "MEAN_ANOMALY": 126.0999,
    "EPHEMERIS_TYPE": 0,
    "CLASSIFICATION_TYPE": "U",
    "NORAD_CAT_ID": 53312,
    "ELEMENT_SET_NO": 999,
    "REV_AT_EPOCH": 761,
    "BSTAR": 0.00070251,
    "MEAN_MOTION_DOT": 0.00045245,
    "MEAN_MOTION_DDOT": 0
},{
    "OBJECT_NAME": "TSIOLKOVSKY-RYAZAN 2 (RS12S)",
    "OBJECT_ID": "1998-067TY",
    "EPOCH": "2022-09-08T19:33:14.721408",
    "MEAN_MOTION": 15.53554745,
    "ECCENTRICITY": 5.56e-5,
    "INCLINATION": 51.6402,
    "RA_OF_ASC_NODE": 281.6634,
    "ARG_OF_PERICENTER": 270.6129,
    "MEAN_ANOMALY": 89.4798,
    "EPHEMERIS_TYPE": 0,
    "CLASSIFICATION_TYPE": "U",
    "NORAD_CAT_ID": 53313,
    "ELEMENT_SET_NO": 999,
    "REV_AT_EPOCH": 769,
    "BSTAR": 0.00069938,
    "MEAN_MOTION_DOT": 0.00045121,
    "MEAN_MOTION_DDOT": 0
},{
    "OBJECT_NAME": "YUZGU 10 (RS4S)",
    "OBJECT_ID": "1998-067TZ",
    "EPOCH": "2022-09-08T19:40:32.337408",
    "MEAN_MOTION": 15.53394121,
    "ECCENTRICITY": 4.04e-5,
    "INCLINATION": 51.6405,
    "RA_OF_ASC_NODE": 281.6993,
    "ARG_OF_PERICENTER": 163.5517,
    "MEAN_ANOMALY": 196.5486,
    "EPHEMERIS_TYPE": 0,
    "CLASSIFICATION_TYPE": "U",
    "NORAD_CAT_ID": 53321,
    "ELEMENT_SET_NO": 999,
    "REV_AT_EPOCH": 769,
    "BSTAR": 0.00070636,
    "MEAN_MOTION_DOT": 0.0004531,
    "MEAN_MOTION_DDOT": 0
},{
    "OBJECT_NAME": "YUZGU UA",
    "OBJECT_ID": "1998-067UA",
    "EPOCH": "2022-09-08T19:39:16.023744",
    "MEAN_MOTION": 15.53447264,
    "ECCENTRICITY": 5.22e-5,
    "INCLINATION": 51.6402,
    "RA_OF_ASC_NODE": 281.6914,
    "ARG_OF_PERICENTER": 142.3927,
    "MEAN_ANOMALY": 217.71,
    "EPHEMERIS_TYPE": 0,
    "CLASSIFICATION_TYPE": "U",
    "NORAD_CAT_ID": 53322,
    "ELEMENT_SET_NO": 999,
    "REV_AT_EPOCH": 764,
    "BSTAR": 0.00070948,
    "MEAN_MOTION_DOT": 0.00045602,
    "MEAN_MOTION_DDOT": 0
},{
    "OBJECT_NAME": "HSU-SAT1",
    "OBJECT_ID": "1998-067UB",
    "EPOCH": "2022-09-08T14:02:02.962464",
    "MEAN_MOTION": 15.52313102,
    "ECCENTRICITY": 0.0005396,
    "INCLINATION": 51.6396,
    "RA_OF_ASC_NODE": 283.1243,
    "ARG_OF_PERICENTER": 238.9492,
    "MEAN_ANOMALY": 121.0969,
    "EPHEMERIS_TYPE": 0,
    "CLASSIFICATION_TYPE": "U",
    "NORAD_CAT_ID": 53462,
    "ELEMENT_SET_NO": 999,
    "REV_AT_EPOCH": 423,
    "BSTAR": 0.00053592,
    "MEAN_MOTION_DOT": 0.000329,
    "MEAN_MOTION_DDOT": 0
},{
    "OBJECT_NAME": "FUTABA",
    "OBJECT_ID": "1998-067UC",
    "EPOCH": "2022-09-08T09:20:03.050016",
    "MEAN_MOTION": 15.5258096,
    "ECCENTRICITY": 0.0005265,
    "INCLINATION": 51.6394,
    "RA_OF_ASC_NODE": 284.0662,
    "ARG_OF_PERICENTER": 240.5124,
    "MEAN_ANOMALY": 119.5341,
    "EPHEMERIS_TYPE": 0,
    "CLASSIFICATION_TYPE": "U",
    "NORAD_CAT_ID": 53463,
    "ELEMENT_SET_NO": 999,
    "REV_AT_EPOCH": 420,
    "BSTAR": 0.00057632,
    "MEAN_MOTION_DOT": 0.00035774,
    "MEAN_MOTION_DDOT": 0
},{
    "OBJECT_NAME": "TUMNANOSAT",
    "OBJECT_ID": "1998-067UD",
    "EPOCH": "2022-09-08T09:16:09.203232",
    "MEAN_MOTION": 15.52853285,
    "ECCENTRICITY": 0.0005173,
    "INCLINATION": 51.6396,
    "RA_OF_ASC_NODE": 284.0483,
    "ARG_OF_PERICENTER": 242.1039,
    "MEAN_ANOMALY": 117.9427,
    "EPHEMERIS_TYPE": 0,
    "CLASSIFICATION_TYPE": "U",
    "NORAD_CAT_ID": 53464,
    "ELEMENT_SET_NO": 999,
    "REV_AT_EPOCH": 420,
    "BSTAR": 0.00064947,
    "MEAN_MOTION_DOT": 0.00040803,
    "MEAN_MOTION_DDOT": 0
}]
